{"type": "FeatureCollection", "features": [ {"type": "Feature", "properties": {"norad_id": 61186, "name": "BEIDOU-3 M25 (C47)", "group": "beidou", "lat": -13.620914398056188, "lon": -61.49423182289506, "alt_km": 21519.08012152732, "timestamp": "2025-12-21T03:56:51.102774+00:00", "meta": {"OBJECT_NAME": "BEIDOU-3 M25 (C47)", "OBJECT_ID": "2024-168B", "EPOCH": "2025-12-20T04:50:33.841248", "MEAN_MOTION": 1.86230266, "ECCENTRICITY": 0.00054523, "INCLINATION": 54.6355, "RA_OF_ASC_NODE": 308.462, "ARG_OF_PERICENTER": 299.4821, "MEAN_ANOMALY": 118.2458, "EPHEMERIS_TYPE": 0, "CLASSIFICATION_TYPE": "U", "NORAD_CAT_ID": 61186, "ELEMENT_SET_NO": 999, "REV_AT_EPOCH": 845, "BSTAR": 0, "MEAN_MOTION_DOT": -7.1e-07, "MEAN_MOTION_DDOT": 0}, "tle": {"line1": "1 61186U 24168B   25354.20178057 -.00000071  00000+0  00000+0 0  9999", "line2": "2 61186  54.6355 308.4620 0005452 299.4821 118.2458  1.86230266  8456"}}, "geometry": {"type": "Point", "coordinates": [-61.49423182289506, -13.620914398056188]}}, {"type": "Feature", "properties": {"norad_id": 61187, "name": "BEIDOU-3 M27 (C49)", "group": "beidou", "lat": 45.96308593083507, "lon": 81.17546575498143, "alt_km": 21527.87061315698, "timestamp": "2025-12-21T03:56:51.102784+00:00", "meta": {"OBJECT_NAME": "BEIDOU-3 M27 (C49)", "OBJECT_ID": "2024-168C", "EPOCH": "2025-12-20T17:20:25.638144", "MEAN_MOTION": 1.86230401, "ECCENTRICITY": 0.0002527, "INCLINATION": 54.6304, "RA_OF_ASC_NODE": 308.4277, "ARG_OF_PERICENTER": 339.9286, "MEAN_ANOMALY": 201.8737, "EPHEMERIS_TYPE": 0, "CLASSIFICATION_TYPE": "U", "NORAD_CAT_ID": 61187, "ELEMENT_SET_NO": 999, "REV_AT_EPOCH": 593, "BSTAR": 0, "MEAN_MOTION_DOT": -6.7e-07, "MEAN_MOTION_DDOT": 0}, "tle": {"line1": "1 61187U 24168C   25354.72251896 -.00000067  00000+0  00000+0 0  9995", "line2": "2 61187  54.6304 308.4277 0002527 339.9286 201.8737  1.86230401  5934"}}, "geometry": {"type": "Point", "coordinates": [81.17546575498143, 45.96308593083507]}}]}